#aV2022 11 23  0  0  0.00000000     288 DD+AD WGS84 FIT  NGA
## 2237 259200.00000000   300.00000000 59906 0.0000000000000
+   31     1  2  3  4  5  6  7  8  9 10 11 12 13 14 15 16 17
+         18 19 20 21 22 23 24 25 26 27 29 30 31 32  0  0  0
+          0  0  0  0  0  0  0  0  0  0  0  0  0  0  0  0  0
+          0  0  0  0  0  0  0  0  0  0  0  0  0  0  0  0  0
+          0  0  0  0  0  0  0  0  0  0  0  0  0  0  0  0  0
++         2  2  2  2  2  2  2  2  2  2  2  2  2  2  2  2  2
++         2  2  2  2  2  2  2  2  2  2  2  2  2  2  0  0  0
++         0  0  0  0  0  0  0  0  0  0  0  0  0  0  0  0  0
++         0  0  0  0  0  0  0  0  0  0  0  0  0  0  0  0  0
++         0  0  0  0  0  0  0  0  0  0  0  0  0  0  0  0  0
%c cc cc ccc ccc cccc cccc cccc cccc ccccc ccccc ccccc ccccc
%c cc cc ccc ccc cccc cccc cccc cccc ccccc ccccc ccccc ccccc
%f  0.0000000  0.000000000  0.00000000000  0.000000000000000
%f  0.0000000  0.000000000  0.00000000000  0.000000000000000
%i    0    0    0    0      0      0      0      0         0
%i    0    0    0    0      0      0      0      0         0
/*      NGA, ST. LOUIS,MO.                                  
/*   EPHEMERIS COMPUTED FROM 2 DAYS OF DATA                 
/*   EPOCHA v8 SMOOTHER                                     
/*   G2139 IERS2010 SATIGS SATAPC                           
*  2022 11 23 21 50  0.00000000
P  1  -6633.431609 -13751.438923 -22083.550639    247.434135                    
V  1  26903.783930  -3810.557960  -5459.636047     -0.055101                    
P  2   9803.155814  12996.448380  21584.767589   -636.453609                    
V  2 -25131.947387   6556.767442   7893.325320      0.018070                    
P  3 -10874.210444 -22801.912834  -8501.692240   -374.026211                    
V  3   8188.899236   6993.213161 -29555.867875     -0.013332                    
P  4  -2000.778469 -21786.179004  14988.315365    -81.131239                    
V  4   9476.467121 -16682.192768 -23086.547375      0.068056                    
P  5     -4.934986  19164.574158  18164.329550   -105.440881                    
V  5 -16650.431798 -16597.598294  17457.674515     -0.014542                    
P  6 -25577.931551   6256.144913   3846.969672    525.243992                    
V  6  -4990.242454  -1135.460458 -31815.226635      0.087757                    
P  7 -21016.636975  -7757.908832  15056.664377    283.671692                    
V  7  17749.828221  -4483.731932  22635.757562     -0.048874                    
P  8   5251.537082 -25292.659319  -5296.902755    -95.272136                    
V  8   5158.301535  -5301.689480  31036.628183     -0.018928                    
P  9 -11018.370652 -12411.787053  20645.997647   -264.176371                    
V  9   9979.920012 -24492.702896  -9405.615730      0.057883                    
P 10  19487.385289   5789.708245 -17102.050166    -13.163604                    
V 10  12670.498999  17868.115179  19991.220323     -0.016278                    
P 11 -18631.518291  12011.874521  14609.589513    -44.611131                    
V 11 -18655.506985   -207.475164 -23667.570492     -0.063951                    
P 12   8550.171030  23559.837966  -9219.441877   -307.783688                    
V 12  -8240.228996  -8024.505465 -28898.586958     -0.045054                    
P 13 -13123.424468  22966.396148    384.902443    429.929578                    
V 13  -2046.422177  -1947.055993  32047.186197      0.067636                    
P 14 -19919.793568  -7965.797859 -15724.734204    -78.812469                    
V 14 -10253.400561 -17252.818631  21603.658264      0.054960                    
P 15  -1768.249380  25787.086265  -5862.993040     -9.899093                    
V 15  -5335.960714   5885.940158  30054.542678      0.032081                    
P 16   6361.260674 -15549.882774  20169.798536   -526.802274                    
V 16  15599.095856  21278.887595  11778.597996      0.001918                    
P 17 -16169.788140   1809.698055 -20568.391342    680.427021                    
V 17  10681.737788 -24888.001009 -10291.787389      0.031065                    
P 18  22305.375109   6108.159088  13190.679415    -33.075755                    
V 18 -16284.480284   4016.811255  25537.615842     -0.141865                    
P 19 -18008.397228  12296.005965 -15212.261328    241.353737                    
V 19   7150.170581 -17673.511055 -23353.939799      0.050708                    
P 20 -11057.786184  10942.173483  21540.777033    468.097036                    
V 20 -20191.031465 -18477.921735  -1204.033011     -0.024644                    
P 21   2453.821768 -15463.880477 -20728.959373    155.408017                    
V 21  27376.618708  -5392.375937   7804.582110     -0.008458                    
P 22  17209.965761 -15572.490699 -12330.384839    370.665676                    
V 22  -4924.237967  15845.505616 -26172.479033      0.078014                    
P 23  20344.504511  14847.802676  -8655.812085     -0.796996                    
V 23   5413.699122   9741.212138  29314.740966      0.003385                    
P 24   2785.443177  15720.817404 -21551.863192     46.255512                    
V 24 -26043.752002   5889.659795   1369.693981     -0.164122                    
P 25  16885.187934  20698.019207     -3.486896    395.515273                    
V 25  -1916.863845   2015.876235 -31450.220398      0.036783                    
P 26  14894.762971  -6532.794188  20944.345117    236.651346                    
V 26  17640.376514  20269.027479  -5862.318161      0.010784                    
P 27  12701.793292 -22370.527695   5463.609006    170.941540                    
V 27     -6.431655   7820.216771  31191.981889     -0.092369                    
P 29   8176.774368  14750.037368  20454.908194   -569.281491                    
V 29 -12080.299265  23086.266477 -11870.433750     -0.025993                    
P 30 -26341.552384    372.400625   4422.003793   -536.380046                    
V 30   4977.056275  -4029.233278  30357.459209      0.004460                    
P 31  25438.845177  -6771.439585   4905.481194   -201.128194                    
V 31   6627.547808   1739.692905 -30511.969938     -0.011999                    
P 32  16807.033811  -5335.799683 -19649.542224   -306.194781                    
V 32  -7770.592931  24167.507478 -13303.781666     -0.127694                    
EOF
